{
  "norad_id": 61853,
  "name": "STARLINK-32394",
  "history": [
    {
      "epoch": "2026-03-28T19:13:20.207712Z",
      "apogee_km": 483.77008768808173,
      "perigee_km": 482.35146643569533,
      "latitude_deg": 2.2398749977358145e-05,
      "longitude_deg": 15.232558215457905,
      "height_km": 482.7668621702856,
      "semi_major_axis_km": 6861.197777061888,
      "eccentricity": 0.00010338,
      "inclination_deg": 42.9986,
      "raan_deg": 129.7829,
      "arg_perigee_deg": 275.6759,
      "mean_anomaly_deg": 84.3975,
      "mean_motion_rev_day": 15.27576099
    }
  ]
}