{"fetched_at":"2026-03-30T06:02:59Z","count":15439,"tles":[{"name":"STARLINK-32394","line1":"1 61853U 24202J   26087.80092833 -.00000024  00000+0  86400-5 0  9998","line2":"2 61853  42.9986 129.7829 0001033 275.6759  84.3975 15.27576099 78258","category":"Starlink"}]}